{"type": "FeatureCollection", "features": [ {"type": "Feature", "properties": {"norad_id": 34375, "name": "IRIDIUM 33 DEB", "group": "iridium-33-debris", "lat": -44.09369867555328, "lon": 6.681800381254953, "alt_km": 842.5452911091234, "timestamp": "2025-12-11T10:53:16.274018+00:00", "meta": {"OBJECT_NAME": "IRIDIUM 33 DEB", "OBJECT_ID": "1997-051FT", "EPOCH": "2025-12-11T00:23:27.996000", "MEAN_MOTION": 14.17987093, "ECCENTRICITY": 0.0103184, "INCLINATION": 86.4327, "RA_OF_ASC_NODE": 183.3931, "ARG_OF_PERICENTER": 132.1212, "MEAN_ANOMALY": 19.5612, "EPHEMERIS_TYPE": 0, "CLASSIFICATION_TYPE": "U", "NORAD_CAT_ID": 34375, "ELEMENT_SET_NO": 999, "REV_AT_EPOCH": 86687, "BSTAR": 0.00057598, "MEAN_MOTION_DOT": 1.262e-05, "MEAN_MOTION_DDOT": 0}, "tle": {"line1": "1 34375U 97051FT  25345.01629625  .00001262  00000+0  57598-3 0  9991", "line2": "2 34375  86.4327 183.3931 0103184 132.1212  19.5612 14.17987093866879"}}, "geometry": {"type": "Point", "coordinates": [6.681800381254953, -44.09369867555328]}}, {"type": "Feature", "properties": {"norad_id": 34376, "name": "IRIDIUM 33 DEB", "group": "iridium-33-debris", "lat": 28.88759616879642, "lon": 9.164621659224814, "alt_km": 698.7245431921338, "timestamp": "2025-12-11T10:53:16.274029+00:00", "meta": {"OBJECT_NAME": "IRIDIUM 33 DEB", "OBJECT_ID": "1997-051FU", "EPOCH": "2025-12-11T00:54:10.348128", "MEAN_MOTION": 14.62526883, "ECCENTRICITY": 0.002699, "INCLINATION": 86.299, "RA_OF_ASC_NODE": 7.3049, "ARG_OF_PERICENTER": 172.3394, "MEAN_ANOMALY": 187.8235, "EPHEMERIS_TYPE": 0, "CLASSIFICATION_TYPE": "U", "NORAD_CAT_ID": 34376, "ELEMENT_SET_NO": 999, "REV_AT_EPOCH": 87982, "BSTAR": 0.0021855, "MEAN_MOTION_DOT": 0.0001117, "MEAN_MOTION_DDOT": 0}, "tle": {"line1": "1 34376U 97051FU  25345.03761977  .00011170  00000+0  21855-2 0  9996", "line2": "2 34376  86.2990   7.3049 0026990 172.3394 187.8235 14.62526883879820"}}, "geometry": {"type": "Point", "coordinates": [9.164621659224814, 28.88759616879642]}}, {"type": "Feature", "properties": {"norad_id": 34486, "name": "IRIDIUM 33 DEB", "group": "iridium-33-debris", "lat": 85.74263291908929, "lon": 134.71633505791704, "alt_km": 564.1823248421715, "timestamp": "2025-12-11T10:53:16.274039+00:00", "meta": {"OBJECT_NAME": "IRIDIUM 33 DEB", "OBJECT_ID": "1997-051GB", "EPOCH": "2025-12-11T02:42:46.567872", "MEAN_MOTION": 14.95675901, "ECCENTRICITY": 0.0013534, "INCLINATION": 86.394, "RA_OF_ASC_NODE": 12.7753, "ARG_OF_PERICENTER": 118.272, "MEAN_ANOMALY": 301.206, "EPHEMERIS_TYPE": 0, "CLASSIFICATION_TYPE": "U", "NORAD_CAT_ID": 34486, "ELEMENT_SET_NO": 999, "REV_AT_EPOCH": 88962, "BSTAR": 0.003207, "MEAN_MOTION_DOT": 0.00035889, "MEAN_MOTION_DDOT": 0}, "tle": {"line1": "1 34486U 97051GB  25345.11303898  .00035889  00000+0  32070-2 0  9995", "line2": "2 34486  86.3940  12.7753 0013534 118.2720 301.2060 14.95675901889621"}}, "geometry": {"type": "Point", "coordinates": [134.71633505791704, 85.74263291908929]}}, {"type": "Feature", "properties": {"norad_id": 34487, "name": "IRIDIUM 33 DEB", "group": "iridium-33-debris", "lat": -9.724274130345572, "lon": 12.303211729840976, "alt_km": 770.4418194011105, "timestamp": "2025-12-11T10:53:16.274050+00:00", "meta": {"OBJECT_NAME": "IRIDIUM 33 DEB", "OBJECT_ID": "1997-051GC", "EPOCH": "2025-12-11T01:04:57.503136", "MEAN_MOTION": 14.43212791, "ECCENTRICITY": 0.0032648, "INCLINATION": 86.3436, "RA_OF_ASC_NODE": 13.1069, "ARG_OF_PERICENTER": 133.704, "MEAN_ANOMALY": 255.6027, "EPHEMERIS_TYPE": 0, "CLASSIFICATION_TYPE": "U", "NORAD_CAT_ID": 34487, "ELEMENT_SET_NO": 999, "REV_AT_EPOCH": 88224, "BSTAR": 0.00027236, "MEAN_MOTION_DOT": 9.41e-06, "MEAN_MOTION_DDOT": 0}, "tle": {"line1": "1 34487U 97051GC  25345.04510999  .00000941  00000+0  27236-3 0  9990", "line2": "2 34487  86.3436  13.1069 0032648 133.7040 255.6027 14.43212791882244"}}, "geometry": {"type": "Point", "coordinates": [12.303211729840976, -9.724274130345572]}}, {"type": "Feature", "properties": {"norad_id": 34488, "name": "IRIDIUM 33 DEB", "group": "iridium-33-debris", "lat": -78.46894315603346, "lon": -71.91123686879742, "alt_km": 492.75734067705525, "timestamp": "2025-12-11T10:53:16.274061+00:00", "meta": {"OBJECT_NAME": "IRIDIUM 33 DEB", "OBJECT_ID": "1997-051GD", "EPOCH": "2025-12-10T14:48:36.945792", "MEAN_MOTION": 15.28578771, "ECCENTRICITY": 0.0013801, "INCLINATION": 86.3253, "RA_OF_ASC_NODE": 306.8644, "ARG_OF_PERICENTER": 55.1759, "MEAN_ANOMALY": 305.0785, "EPHEMERIS_TYPE": 0, "CLASSIFICATION_TYPE": "U", "NORAD_CAT_ID": 34488, "ELEMENT_SET_NO": 999, "REV_AT_EPOCH": 89207, "BSTAR": 0.0066252, "MEAN_MOTION_DOT": 0.00188937, "MEAN_MOTION_DDOT": 0}, "tle": {"line1": "1 34488U 97051GD  25344.61709428  .00188937  00000+0  66252-2 0  9992", "line2": "2 34488  86.3253 306.8644 0013801  55.1759 305.0785 15.28578771892077"}}, "geometry": {"type": "Point", "coordinates": [-71.91123686879742, -78.46894315603346]}}, {"type": "Feature", "properties": {"norad_id": 34492, "name": "IRIDIUM 33 DEB", "group": "iridium-33-debris", "lat": 20.66019610254167, "lon": 153.81560939262607, "alt_km": 787.608694219779, "timestamp": "2025-12-11T10:53:16.274072+00:00", "meta": {"OBJECT_NAME": "IRIDIUM 33 DEB", "OBJECT_ID": "1997-051GH", "EPOCH": "2025-12-10T11:09:51.703200", "MEAN_MOTION": 14.25634536, "ECCENTRICITY": 0.01891979, "INCLINATION": 86.473, "RA_OF_ASC_NODE": 335.5473, "ARG_OF_PERICENTER": 245.5701, "MEAN_ANOMALY": 245.7256, "EPHEMERIS_TYPE": 0, "CLASSIFICATION_TYPE": "U", "NORAD_CAT_ID": 34492, "ELEMENT_SET_NO": 999, "REV_AT_EPOCH": 85026, "BSTAR": 0.0074682378, "MEAN_MOTION_DOT": 0.00021406, "MEAN_MOTION_DDOT": 0}, "tle": {"line1": "1 34492U 97051GH  25344.46518175  .00021406  00000+0  74682-2 0  9990", "line2": "2 34492  86.4730 335.5473 0189197 245.5701 245.7256 14.25634536850262"}}, "geometry": {"type": "Point", "coordinates": [153.81560939262607, 20.66019610254167]}}, {"type": "Feature", "properties": {"norad_id": 34497, "name": "IRIDIUM 33 DEB", "group": "iridium-33-debris", "lat": 32.10509830901899, "lon": 55.29196509861002, "alt_km": 760.5785338669184, "timestamp": "2025-12-11T10:53:16.274082+00:00", "meta": {"OBJECT_NAME": "IRIDIUM 33 DEB", "OBJECT_ID": "1997-051GN", "EPOCH": "2025-12-10T04:35:23.086752", "MEAN_MOTION": 14.2744131, "ECCENTRICITY": 0.00790645, "INCLINATION": 86.2779, "RA_OF_ASC_NODE": 53.4903, "ARG_OF_PERICENTER": 347.8917, "MEAN_ANOMALY": 40.4515, "EPHEMERIS_TYPE": 0, "CLASSIFICATION_TYPE": "U", "NORAD_CAT_ID": 34497, "ELEMENT_SET_NO": 999, "REV_AT_EPOCH": 86847, "BSTAR": 0.00082191095, "MEAN_MOTION_DOT": 2.102e-05, "MEAN_MOTION_DDOT": 0}, "tle": {"line1": "1 34497U 97051GN  25344.19123943  .00002102  00000+0  82191-3 0  9997", "line2": "2 34497  86.2779  53.4903 0079064 347.8917  40.4515 14.27441310868476"}}, "geometry": {"type": "Point", "coordinates": [55.29196509861002, 32.10509830901899]}}, {"type": "Feature", "properties": {"norad_id": 34508, "name": "IRIDIUM 33 DEB", "group": "iridium-33-debris", "lat": 41.35371093645471, "lon": -80.01509361547458, "alt_km": 723.6448734166761, "timestamp": "2025-12-11T10:53:16.274093+00:00", "meta": {"OBJECT_NAME": "IRIDIUM 33 DEB", "OBJECT_ID": "1997-051GZ", "EPOCH": "2025-12-10T17:32:54.116160", "MEAN_MOTION": 14.38397935, "ECCENTRICITY": 0.00659335, "INCLINATION": 86.3699, "RA_OF_ASC_NODE": 103.4944, "ARG_OF_PERICENTER": 179.5096, "MEAN_ANOMALY": 180.6179, "EPHEMERIS_TYPE": 0, "CLASSIFICATION_TYPE": "U", "NORAD_CAT_ID": 34508, "ELEMENT_SET_NO": 999, "REV_AT_EPOCH": 87280, "BSTAR": 0.0024146559, "MEAN_MOTION_DOT": 7.57e-05, "MEAN_MOTION_DDOT": 0}, "tle": {"line1": "1 34508U 97051GZ  25344.73118190  .00007570  00000+0  24147-2 0  9998", "line2": "2 34508  86.3699 103.4944 0065933 179.5096 180.6179 14.38397935872800"}}, "geometry": {"type": "Point", "coordinates": [-80.01509361547458, 41.35371093645471]}}, {"type": "Feature", "properties": {"norad_id": 34521, "name": "IRIDIUM 33 DEB", "group": "iridium-33-debris", "lat": -21.471698786297093, "lon": -147.4591083226917, "alt_km": 686.8935417686635, "timestamp": "2025-12-11T10:53:16.274104+00:00", "meta": {"OBJECT_NAME": "IRIDIUM 33 DEB", "OBJECT_ID": "1997-051HN", "EPOCH": "2025-12-11T03:24:20.281824", "MEAN_MOTION": 14.63343706, "ECCENTRICITY": 0.0001378, "INCLINATION": 86.38, "RA_OF_ASC_NODE": 31.2512, "ARG_OF_PERICENTER": 224.2146, "MEAN_ANOMALY": 135.8956, "EPHEMERIS_TYPE": 0, "CLASSIFICATION_TYPE": "U", "NORAD_CAT_ID": 34521, "ELEMENT_SET_NO": 999, "REV_AT_EPOCH": 88449, "BSTAR": 0.0013462, "MEAN_MOTION_DOT": 6.973e-05, "MEAN_MOTION_DDOT": 0}, "tle": {"line1": "1 34521U 97051HN  25345.14190141  .00006973  00000+0  13462-2 0  9999", "line2": "2 34521  86.3800  31.2512 0001378 224.2146 135.8956 14.63343706884493"}}, "geometry": {"type": "Point", "coordinates": [-147.4591083226917, -21.471698786297093]}}, {"type": "Feature", "properties": {"norad_id": 34525, "name": "IRIDIUM 33 DEB", "group": "iridium-33-debris", "lat": 64.68018320965099, "lon": -140.31241707520374, "alt_km": 738.1512646259935, "timestamp": "2025-12-11T10:53:16.274114+00:00", "meta": {"OBJECT_NAME": "IRIDIUM 33 DEB", "OBJECT_ID": "1997-051HS", "EPOCH": "2025-12-11T05:41:41.994240", "MEAN_MOTION": 14.42899874, "ECCENTRICITY": 0.0006687, "INCLINATION": 86.3728, "RA_OF_ASC_NODE": 47.4849, "ARG_OF_PERICENTER": 98.7535, "MEAN_ANOMALY": 333.0533, "EPHEMERIS_TYPE": 0, "CLASSIFICATION_TYPE": "U", "NORAD_CAT_ID": 34525, "ELEMENT_SET_NO": 999, "REV_AT_EPOCH": 88066, "BSTAR": 0.00054842, "MEAN_MOTION_DOT": 1.851e-05, "MEAN_MOTION_DDOT": 0}, "tle": {"line1": "1 34525U 97051HS  25345.23729160  .00001851  00000+0  54842-3 0  9990", "line2": "2 34525  86.3728  47.4849 0006687  98.7535 333.0533 14.42899874880669"}}, "geometry": {"type": "Point", "coordinates": [-140.31241707520374, 64.68018320965099]}}]}